STARLINK-3982
1 52614U 22052S   26092.79503078  .00101627  00000+0  17924-2 0  9998
2 52614  53.2089 115.0144 0004987  41.6413 318.4976 15.49604653215289
